{
    "links": {
        "self": "http://www.neowsapp.com/rest/v1/neo/3763285?api_key=iIulBulltgU6a56xZRHN4H3l9WmuAYTsLGpBGhQ2"
    },
    "id": "3763285",
    "neo_reference_id": "3763285",
    "name": "(2016 VV1)",
    "designation": "2016 VV1",
    "nasa_jpl_url": "http://ssd.jpl.nasa.gov/sbdb.cgi?sstr=3763285",
    "absolute_magnitude_h": 23.7,
    "estimated_diameter": {
        "kilometers": {
            "estimated_diameter_min": 0.0483676488,
            "estimated_diameter_max": 0.1081533507
        },
        "meters": {
            "estimated_diameter_min": 48.3676488219,
            "estimated_diameter_max": 108.1533506775
        },
        "miles": {
            "estimated_diameter_min": 0.0300542543,
            "estimated_diameter_max": 0.0672033557
        },
        "feet": {
            "estimated_diameter_min": 158.6865169607,
            "estimated_diameter_max": 354.8338390368
        }
    },
    "is_potentially_hazardous_asteroid": false,
    "close_approach_data": [
        {
            "close_approach_date": "2016-10-28",
            "close_approach_date_full": "2016-Oct-28 19:32",
            "epoch_date_close_approach": 1477683120000,
            "relative_velocity": {
                "kilometers_per_second": "7.5784043712",
                "kilometers_per_hour": "27282.255736296",
                "miles_per_hour": "16952.1327379224"
            },
            "miss_distance": {
                "astronomical": "0.1266973627",
                "lunar": "49.2852740903",
                "kilometers": "18953655.594537449",
                "miles": "11777255.4678528362"
            },
            "orbiting_body": "Earth"
        }
    ],
    "orbital_data": {
        "orbit_id": "9",
        "orbit_determination_date": "2018-02-10 07:08:28",
        "first_observation_date": "2016-11-05",
        "last_observation_date": "2016-11-25",
        "data_arc_in_days": 20,
        "observations_used": 48,
        "orbit_uncertainty": "7",
        "minimum_orbit_intersection": ".122277",
        "jupiter_tisserand_invariant": "4.738",
        "epoch_osculation": "2459000.5",
        "eccentricity": ".2479933470513582",
        "semi_major_axis": "1.382288251522828",
        "inclination": "12.78954811096921",
        "ascending_node_longitude": "53.60913830444444",
        "orbital_period": "593.6033621775616",
        "perihelion_distance": "1.039489961437912",
        "perihelion_argument": "301.2631739117066",
        "aphelion_distance": "1.725086541607744",
        "perihelion_time": "2458835.349794947373",
        "mean_anomaly": "100.1579128542088",
        "mean_motion": ".6064655676466922",
        "equinox": "J2000",
        "orbit_class": {
            "orbit_class_type": "AMO",
            "orbit_class_description": "Near-Earth asteroid orbits similar to that of 1221 Amor",
            "orbit_class_range": "1.017 AU < q (perihelion) < 1.3 AU"
        }
    },
    "is_sentry_object": false
}